start=new Date('2022-01-22T00:00:00.000Z').valueOf();
sats=[{"OBJECT_NAME":"STARLINK-2361","EPOCH":"2022-01-21T11:34:58.514880","MEAN_MOTION_DOT":"0.00001700","RA_OF_ASC_NODE":"192.2173","TLE_LINE1":"1 47901U 21021AT  22021.48262170  .00001700  00000-0  13303-3 0  9995","MEAN_MOTION_DDOT":"0.0000000000000","ECCENTRICITY":"0.00022010","CENTER_NAME":"EARTH","OBJECT_TYPE":"PAYLOAD","LAUNCH_DATE":"2021-03-14","FILE":"3279324","TIME_SYSTEM":"UTC","INCLINATION":"53.0542","DECAY_DATE":null,"CLASSIFICATION_TYPE":"U","GP_ID":"194329271","EPHEMERIS_TYPE":"0","ELEMENT_SET_NO":"999","PERIOD":"95.592","PERIAPSIS":"545.694","RCS_SIZE":"LARGE","MEAN_MOTION":"15.06398429","BSTAR":"0.00013303000000","REF_FRAME":"TEME","APOAPSIS":"548.743","TLE_LINE2":"2 47901  53.0542 192.2173 0002201  85.6499 274.4742 15.06398429 49003","SEMIMAJOR_AXIS":"6925.353","OBJECT_ID":"2021-021AT","REV_AT_EPOCH":"4900","MEAN_ANOMALY":"274.4742","SITE":"AFETR","COUNTRY_CODE":"US","MEAN_ELEMENT_THEORY":"SGP4","ARG_OF_PERICENTER":"85.6499","NORAD_CAT_ID":"47901"},{"DECAY_DATE":null,"INCLINATION":"53.0540","TIME_SYSTEM":"UTC","CENTER_NAME":"EARTH","OBJECT_TYPE":"PAYLOAD","FILE":"3279351","LAUNCH_DATE":"2021-03-14","MEAN_MOTION_DDOT":"0.0000000000000","ECCENTRICITY":"0.00024860","RA_OF_ASC_NODE":"210.7577","TLE_LINE1":"1 47902U 21021AU  22021.80608198 -.00001808  00000-0 -10247-3 0  9991","MEAN_MOTION_DOT":"-0.00001808","EPOCH":"2022-01-21T19:20:45.483072","OBJECT_NAME":"STARLINK-2362","COUNTRY_CODE":"US","ARG_OF_PERICENTER":"76.3379","NORAD_CAT_ID":"47902","MEAN_ELEMENT_THEORY":"SGP4","SITE":"AFETR","MEAN_ANOMALY":"283.7887","REV_AT_EPOCH":"4829","OBJECT_ID":"2021-021AU","SEMIMAJOR_AXIS":"6925.365","APOAPSIS":"548.952","REF_FRAME":"TEME","TLE_LINE2":"2 47902  53.0540 210.7577 0002486  76.3379 283.7887 15.06394597 48290","MEAN_MOTION":"15.06394597","BSTAR":"-0.00010247000000","RCS_SIZE":"LARGE","PERIAPSIS":"545.508","ELEMENT_SET_NO":"999","PERIOD":"95.592","CLASSIFICATION_TYPE":"U","GP_ID":"194332859","EPHEMERIS_TYPE":"0"},{"SEMIMAJOR_AXIS":"6925.346","OBJECT_ID":"2021-021AV","REV_AT_EPOCH":"4858","MEAN_ANOMALY":"279.8361","SITE":"AFETR","COUNTRY_CODE":"US","ARG_OF_PERICENTER":"80.2884","MEAN_ELEMENT_THEORY":"SGP4","NORAD_CAT_ID":"47903","CLASSIFICATION_TYPE":"U","GP_ID":"194336368","EPHEMERIS_TYPE":"0","ELEMENT_SET_NO":"999","PERIOD":"95.592","PERIAPSIS":"545.639","RCS_SIZE":"LARGE","MEAN_MOTION":"15.06400938","BSTAR":"0.00013980000000","APOAPSIS":"548.782","REF_FRAME":"TEME","TLE_LINE2":"2 47903  53.0526 190.9652 0002269  80.2884 279.8361 15.06400938 48584","TLE_LINE1":"1 47903U 21021AV  22021.76368254  .00001801  00000-0  13980-3 0  9991","RA_OF_ASC_NODE":"190.9652","MEAN_MOTION_DDOT":"0.0000000000000","ECCENTRICITY":"0.00022690","CENTER_NAME":"EARTH","OBJECT_TYPE":"PAYLOAD","FILE":"3279498","LAUNCH_DATE":"2021-03-14","TIME_SYSTEM":"UTC","INCLINATION":"53.0526","DECAY_DATE":null,"OBJECT_NAME":"STARLINK-2363","EPOCH":"2022-01-21T18:19:42.171456","MEAN_MOTION_DOT":"0.00001801"},{"MEAN_MOTION_DOT":"-0.00001325","EPOCH":"2022-01-21T11:52:14.888064","OBJECT_NAME":"STARLINK-2364","INCLINATION":"53.0540","DECAY_DATE":null,"OBJECT_TYPE":"PAYLOAD","CENTER_NAME":"EARTH","LAUNCH_DATE":"2021-03-14","FILE":"3279324","TIME_SYSTEM":"UTC","RA_OF_ASC_NODE":"192.1666","TLE_LINE1":"1 47904U 21021AW  22021.49461676 -.00001325  00000-0 -70046-4 0  9994","MEAN_MOTION_DDOT":"0.0000000000000","ECCENTRICITY":"0.00021230","MEAN_MOTION":"15.06390999","BSTAR":"-0.00007004600000","REF_FRAME":"TEME","APOAPSIS":"548.711","TLE_LINE2":"2 47904  53.0540 192.1666 0002123  88.6042 271.5190 15.06390999 48996","ELEMENT_SET_NO":"999","PERIOD":"95.593","PERIAPSIS":"545.771","RCS_SIZE":"LARGE","CLASSIFICATION_TYPE":"U","GP_ID":"194329021","EPHEMERIS_TYPE":"0","MEAN_ANOMALY":"271.5190","SITE":"AFETR","COUNTRY_CODE":"US","MEAN_ELEMENT_THEORY":"SGP4","ARG_OF_PERICENTER":"88.6042","NORAD_CAT_ID":"47904","REV_AT_EPOCH":"4899","OBJECT_ID":"2021-021AW","SEMIMAJOR_AXIS":"6925.376"},{"DECAY_DATE":null,"INCLINATION":"53.0553","LAUNCH_DATE":"2021-03-14","FILE":"3279324","OBJECT_TYPE":"PAYLOAD","CENTER_NAME":"EARTH","TIME_SYSTEM":"UTC","TLE_LINE1":"1 47905U 21021AX  22021.49092415  .00000309  00000-0  39683-4 0  9997","RA_OF_ASC_NODE":"192.1903","ECCENTRICITY":"0.00021210","MEAN_MOTION_DDOT":"0.0000000000000","MEAN_MOTION_DOT":"0.00000309","EPOCH":"2022-01-21T11:46:55.846560","OBJECT_NAME":"STARLINK-2365","SITE":"AFETR","MEAN_ANOMALY":"279.5907","COUNTRY_CODE":"US","MEAN_ELEMENT_THEORY":"SGP4","ARG_OF_PERICENTER":"80.5321","NORAD_CAT_ID":"47905","REV_AT_EPOCH":"4912","OBJECT_ID":"2021-021AX","SEMIMAJOR_AXIS":"6925.375","BSTAR":"0.00003968300000","MEAN_MOTION":"15.06391475","TLE_LINE2":"2 47905  53.0553 192.1903 0002121  80.5321 279.5907 15.06391475 49124","REF_FRAME":"TEME","APOAPSIS":"548.709","PERIOD":"95.593","ELEMENT_SET_NO":"999","RCS_SIZE":"LARGE","PERIAPSIS":"545.771","EPHEMERIS_TYPE":"0","GP_ID":"194329771","CLASSIFICATION_TYPE":"U"},{"TIME_SYSTEM":"UTC","OBJECT_TYPE":"PAYLOAD","CENTER_NAME":"EARTH","FILE":"3279324","LAUNCH_DATE":"2021-03-14","DECAY_DATE":null,"INCLINATION":"53.0475","MEAN_MOTION_DDOT":"0.0000000000000","ECCENTRICITY":"0.00026920","RA_OF_ASC_NODE":"107.4326","TLE_LINE1":"1 47906U 21021AY  22021.47751393  .00029710  00000-0  18525-3 0  9991","OBJECT_NAME":"STARLINK-2366","EPOCH":"2022-01-21T11:27:37.203552","MEAN_MOTION_DOT":"0.00029710","REV_AT_EPOCH":"5030","NORAD_CAT_ID":"47906","COUNTRY_CODE":"US","MEAN_ELEMENT_THEORY":"SGP4","ARG_OF_PERICENTER":"13.1242","SITE":"AFETR","MEAN_ANOMALY":"346.9847","SEMIMAJOR_AXIS":"6717.994","OBJECT_ID":"2021-021AY","RCS_SIZE":"LARGE","PERIAPSIS":"338.050","ELEMENT_SET_NO":"999","PERIOD":"91.331","REF_FRAME":"TEME","APOAPSIS":"341.667","TLE_LINE2":"2 47906  53.0475 107.4326 0002692  13.1242 346.9847 15.76679301 50301","MEAN_MOTION":"15.76679301","BSTAR":"0.00018525000000","CLASSIFICATION_TYPE":"U","GP_ID":"194328022","EPHEMERIS_TYPE":"0"},{"MEAN_ANOMALY":"284.0553","SITE":"AFETR","COUNTRY_CODE":"US","MEAN_ELEMENT_THEORY":"SGP4","ARG_OF_PERICENTER":"76.0671","NORAD_CAT_ID":"47907","REV_AT_EPOCH":"4865","OBJECT_ID":"2021-021AZ","SEMIMAJOR_AXIS":"6925.377","MEAN_MOTION":"15.06390660","BSTAR":"0.00012015000000","APOAPSIS":"548.705","REF_FRAME":"TEME","TLE_LINE2":"2 47907  53.0536 213.3413 0002112  76.0671 284.0553 15.06390660 48657","ELEMENT_SET_NO":"999","PERIOD":"95.593","RCS_SIZE":"LARGE","PERIAPSIS":"545.780","CLASSIFICATION_TYPE":"U","GP_ID":"194328767","EPHEMERIS_TYPE":"0","INCLINATION":"53.0536","DECAY_DATE":null,"OBJECT_TYPE":"PAYLOAD","CENTER_NAME":"EARTH","FILE":"3279324","LAUNCH_DATE":"2021-03-14","TIME_SYSTEM":"UTC","RA_OF_ASC_NODE":"213.3413","TLE_LINE1":"1 47907U 21021AZ  22021.23477301  .00001508  00000-0  12015-3 0  9993","MEAN_MOTION_DDOT":"0.0000000000000","ECCENTRICITY":"0.00021120","MEAN_MOTION_DOT":"0.00001508","EPOCH":"2022-01-21T05:38:04.388064","OBJECT_NAME":"STARLINK-2367"},{"DECAY_DATE":null,"INCLINATION":"53.0554","TIME_SYSTEM":"UTC","CENTER_NAME":"EARTH","OBJECT_TYPE":"PAYLOAD","LAUNCH_DATE":"2021-03-14","FILE":"3279479","MEAN_MOTION_DDOT":"0.0000000000000","ECCENTRICITY":"0.00023200","TLE_LINE1":"1 47908U 21021BA  22021.83928235  .00001236  00000-0  10190-3 0  9997","RA_OF_ASC_NODE":"210.6294","MEAN_MOTION_DOT":"0.00001236","EPOCH":"2022-01-21T20:08:33.995040","OBJECT_NAME":"STARLINK-2368","MEAN_ELEMENT_THEORY":"SGP4","COUNTRY_CODE":"US","ARG_OF_PERICENTER":"81.7651","NORAD_CAT_ID":"47908","SITE":"AFETR","MEAN_ANOMALY":"278.3600","REV_AT_EPOCH":"4830","OBJECT_ID":"2021-021BA","SEMIMAJOR_AXIS":"6925.383","REF_FRAME":"TEME","APOAPSIS":"548.855","TLE_LINE2":"2 47908  53.0554 210.6294 0002320  81.7651 278.3600 15.06388804 48305","MEAN_MOTION":"15.06388804","BSTAR":"0.00010190000000","RCS_SIZE":"LARGE","PERIAPSIS":"545.641","ELEMENT_SET_NO":"999","PERIOD":"95.593","GP_ID":"194335588","CLASSIFICATION_TYPE":"U","EPHEMERIS_TYPE":"0"},{"ECCENTRICITY":"0.00022040","MEAN_MOTION_DDOT":"0.0000000000000","TLE_LINE1":"1 47909U 21021BB  22021.45683175 -.00001039  00000-0 -50823-4 0  9998","RA_OF_ASC_NODE":"202.3442","TIME_SYSTEM":"UTC","LAUNCH_DATE":"2021-03-14","FILE":"3279324","CENTER_NAME":"EARTH","OBJECT_TYPE":"PAYLOAD","DECAY_DATE":null,"INCLINATION":"53.0527","OBJECT_NAME":"STARLINK-2369","EPOCH":"2022-01-21T10:57:50.263200","MEAN_MOTION_DOT":"-0.00001039","OBJECT_ID":"2021-021BB","SEMIMAJOR_AXIS":"6925.372","REV_AT_EPOCH":"4902","COUNTRY_CODE":"US","NORAD_CAT_ID":"47909","MEAN_ELEMENT_THEORY":"SGP4","ARG_OF_PERICENTER":"75.3663","MEAN_ANOMALY":"284.7570","SITE":"AFETR","EPHEMERIS_TYPE":"0","GP_ID":"194329272","CLASSIFICATION_TYPE":"U","RCS_SIZE":"LARGE","PERIAPSIS":"545.711","PERIOD":"95.593","ELEMENT_SET_NO":"999","TLE_LINE2":"2 47909  53.0527 202.3442 0002204  75.3663 284.7570 15.06392234 49021","REF_FRAME":"TEME","APOAPSIS":"548.764","BSTAR":"-0.00005082300000","MEAN_MOTION":"15.06392234"},{"INCLINATION":"53.0544","DECAY_DATE":null,"LAUNCH_DATE":"2021-03-14","FILE":"3279353","CENTER_NAME":"EARTH","OBJECT_TYPE":"PAYLOAD","TIME_SYSTEM":"UTC","TLE_LINE1":"1 47910U 21021BC  22021.75814168  .00001694  00000-0  13264-3 0  9993","RA_OF_ASC_NODE":"200.9781","ECCENTRICITY":"0.00024320","MEAN_MOTION_DDOT":"0.0000000000000","MEAN_MOTION_DOT":"0.00001694","OBJECT_NAME":"STARLINK-2370","EPOCH":"2022-01-21T18:11:43.441152","SITE":"AFETR","MEAN_ANOMALY":"278.7685","MEAN_ELEMENT_THEORY":"SGP4","COUNTRY_CODE":"US","NORAD_CAT_ID":"47910","ARG_OF_PERICENTER":"81.3580","REV_AT_EPOCH":"4843","OBJECT_ID":"2021-021BC","SEMIMAJOR_AXIS":"6925.345","BSTAR":"0.00013264000000","MEAN_MOTION":"15.06401039","TLE_LINE2":"2 47910  53.0544 200.9781 0002432  81.3580 278.7685 15.06401039 48438","APOAPSIS":"548.895","REF_FRAME":"TEME","PERIOD":"95.592","ELEMENT_SET_NO":"999","RCS_SIZE":"LARGE","PERIAPSIS":"545.526","EPHEMERIS_TYPE":"0","CLASSIFICATION_TYPE":"U","GP_ID":"194333068"}];
